{
  "norad_id": 66477,
  "name": "STARLINK-35354",
  "history": [
    {
      "epoch": "2026-03-28T14:51:50.299488Z",
      "apogee_km": 483.9831222425719,
      "perigee_km": 481.99737479430496,
      "latitude_deg": -1.0250826447075026e-05,
      "longitude_deg": 140.0711304085361,
      "height_km": 482.5145635526698,
      "semi_major_axis_km": 6861.127248518438,
      "eccentricity": 0.00014471,
      "inclination_deg": 42.9987,
      "raan_deg": 189.0679,
      "arg_perigee_deg": 284.7195,
      "mean_anomaly_deg": 75.3496,
      "mean_motion_rev_day": 15.27599653
    }
  ]
}